{
    "week": 294,
    "satellites": [
        {
            "Name": "BEIDOU-3 M28 (C50)",
            "Line1": "1 58654U 23207A   24331.20073102 -.00000036  00000+0  00000+0 0  9998",
            "Line2": "2 58654  55.2480  81.5479 0001906 240.9383 119.0257  1.86232100  6265",
            "SatelliteNumber": "58654",
            "Classification": "U",
            "LaunchYear": "23",
            "LaunchNumber": "207",
            "PieceOfLaunch": "A",
            "EpochYear": "24",
            "EpochDay": 331.20073102,
            "FirstDerivativeMeanMotion": -3.6e-07,
            "SecondDerivativeMeanMotion": "00000+0",
            "BSTAR": "00000+0",
            "SetNumber": "999",
            "Inclination": 55.248,
            "RAAN": 81.5479,
            "Eccentricity": 0.0001906,
            "ArgumentOfPerigee": 240.9383,
            "MeanAnomaly": 119.0257,
            "MeanMotion": 1.862321,
            "RevolutionNumber": "626"
        },
        {
            "Name": "BEIDOU-3 M26 (C48)",
            "Line1": "1 58655U 23207B   24331.53700630 -.00000037  00000+0  00000+0 0  9999",
            "Line2": "2 58655  55.2504  81.5222 0003354 233.1949 126.7569  1.86231569  6258",
            "SatelliteNumber": "58655",
            "Classification": "U",
            "LaunchYear": "23",
            "LaunchNumber": "207",
            "PieceOfLaunch": "B",
            "EpochYear": "24",
            "EpochDay": 331.5370063,
            "FirstDerivativeMeanMotion": -3.7e-07,
            "SecondDerivativeMeanMotion": "00000+0",
            "BSTAR": "00000+0",
            "SetNumber": "999",
            "Inclination": 55.2504,
            "RAAN": 81.5222,
            "Eccentricity": 0.0003354,
            "ArgumentOfPerigee": 233.1949,
            "MeanAnomaly": 126.7569,
            "MeanMotion": 1.86231569,
            "RevolutionNumber": "625"
        }
    ]
}